HIMAWARI-8              
1 40267U 14060A   24127.63660321 -.00000276  00000+0  00000+0 0  9997
2 40267   0.0376 144.6855 0001022 304.1367 145.9855  1.00272214 35025
